#dP2024 11 11 12  0  0.00000000      96 __u+U IGS20 EXT  IAC
## 2340 129600.00000000   900.00000000 60625 0.5000000000000
+   52   G02G03G04G05G06G07G08G09G10G11G12G13G14G15G16G17G18
+        G19G20G21G22G23G24G25G26G27G28G29G30G31G32R01R02R03
+        R04R05R07R08R09R11R12R14R15R16R17R18R19R20R21R22R24
+        R26  0  0  0  0  0  0  0  0  0  0  0  0  0  0  0  0
+          0  0  0  0  0  0  0  0  0  0  0  0  0  0  0  0  0
++         7  7  8  8  8  7  8  7  7  8  8  8  9  7  7  7  7
++         7  7  7  8  7  7  7  6  7  7  7  7  7  8  8  7  7
++         7  9  8  8  9  9  9  8  7  8  8  8  8  8  8  8  9
++         7  0  0  0  0  0  0  0  0  0  0  0  0  0  0  0  0
++         0  0  0  0  0  0  0  0  0  0  0  0  0  0  0  0  0
%c M  cc GPS ccc cccc cccc cccc cccc ccccc ccccc ccccc ccccc
%c cc cc ccc ccc cccc cccc cccc cccc ccccc ccccc ccccc ccccc
%f  0.0000000  0.000000000  0.00000000000  0.000000000000000
%f  0.0000000  0.000000000  0.00000000000  0.000000000000000
%i    0    0    0    0      0      0      0      0         0
%i    0    0    0    0      0      0      0      0         0
/* IAC                                ULTRA-RAPID PREDICTION
/* S/V CLOCKS ARE ALIGNED TO GNSS TIME                      
/* G:C1WC2W R:C1PC2P E:C1XC5X C:C2IC6I J:C1CC2S             
/* PCV:IGS20_2317 OL/AL:FES2004  NONE     YN ORB:CoN CLK:CoN
*  2024 11 11 16 30  0.00000000
PG02 -20976.562341 -10601.110358  13181.888026   -316.873176
PG03 -15851.748285   1108.990639  21094.849216    596.990500
PG04 -26372.707058   -915.474374   3683.524166    477.712063
PG05   8765.751941  15077.064267 -20192.003893   -192.678006
PG06   1548.626733  21000.344896  16190.521383   -106.763415
PG07 -15144.695419   4476.079541 -20880.704666    -20.801476
PG08 -21400.333857  -7434.101372 -14334.930619    410.733437
PG09 -25019.457214   7088.858239  -5666.246353    439.078308
PG10   9993.629031 -24366.701751   1607.133091   -191.948280
PG11  11974.583894  23435.369263   3862.108087   -749.593982
PG12  14673.604468   4285.382243  21431.079806   -551.383344
PG13  13804.787502  13377.738004 -18663.299716    685.586784
PG14 -12887.355794  22959.177813  -2309.278247    537.569794
PG15  22125.634131   5172.195589 -14398.259767    226.557365
PG16  -3906.637546 -19034.960061 -18246.484457   -131.055499
PG17 -14006.104992  13415.168833  18647.809529    562.558035
PG18  13524.219884  -6553.749799 -21883.343950   -660.193660
PG19  -2745.160431  14939.476302  21613.452440    561.538758
PG20   2617.936384  23684.837877 -11803.131346    368.832091
PG21 -20792.467985 -15819.779968   7678.610952     97.703936
PG22  -8765.042733  24519.719628   6401.203963    -78.602600
PG23  15937.041710 -17494.074934 -11785.305218    361.084073
PG24  21063.997538  12680.299450  10087.737375   -480.817570
PG25  17434.153457 -10488.200620  16583.130489    499.074450
PG26   2391.470659 -24997.646594  -8202.186373     29.682832
PG27 -11304.103095 -13225.081177 -20481.689255    -34.731383
PG28   -227.553944 -20169.532159  17264.222597   -475.712267
PG29  25877.662694  -3947.653014  -4920.041655   -564.558278
PG30  -7043.836564  15602.337745 -20097.755162   -284.037729
PG31  -8862.441085 -23349.743277   8225.139264   -221.938966
PG32  10259.946216 -14849.744750  19635.895220   -575.134382
PR01  13857.223958 -15326.411694  14957.466768    104.069228
PR02  -2437.626102 -10698.850654  23062.789017    -25.596025
PR03 -18105.337495   -499.301474  18035.794012    111.180975
PR04 -23459.934395   9451.308098   3431.273287    263.503284
PR05 -16480.800736  14466.946689 -13049.979593    140.541215
PR07  18317.196243    233.290842 -17685.188036     94.770598
PR08  23311.195373  -9821.843872  -3044.598709     -6.282343
PR09   3429.016512  23789.219320   8436.773644    219.940641
PR11  10900.210344  -6285.432449  22199.944677      7.145461
PR12   5942.476189 -22940.508817   9443.054541     47.105241
PR14  -9564.595637 -11120.803559 -20865.156576     27.195314
PR15 -10898.135177   8101.408220 -21575.821242     74.208866
PR16  -5863.286121  22872.428803  -9600.628729     30.715196
PR17 -21730.416630 -12867.902016   3425.764700    138.928038
PR18 -18107.310273  -2803.284954  17790.539969    171.366148
PR19  -7270.869892   7576.712137  23253.699770   -298.086016
PR20  11988.621228  17150.019581  14580.504591   -121.809883
PR21  21486.943526  13566.848809  -2401.920285   -150.454236
PR22  17544.183066   2033.101837 -18369.560408     -6.998038
PR24 -13059.109894 -16835.252387 -13983.005918    -79.721770
PR26  23344.909855  -9078.086948  -4848.092255   -133.599436
*  2024 11 11 16 45  0.00000000
PG02 -21724.447996 -11669.433668  10792.719524   -316.865502
PG03 -14930.101527  -1196.274196  21756.578342    596.999985
PG04 -25820.260209  -1192.236134   6462.207786    477.717930
PG05   7926.973544  17111.300671 -18855.940928   -192.679130
PG06    301.754764  19503.941553  18045.725486   -106.789555
PG07 -16587.354838   2489.329037 -20162.047457    -20.799356
PG08 -19731.703365  -7891.038978 -16321.398315    410.742755
PG09 -25529.479141   6917.632715  -2872.232219    439.093596
PG10  10181.336641 -24279.616374  -1320.209246   -191.961154
PG11  11447.558309  23076.581602   6640.630460   -749.595552
PG12  13563.085457   6550.972803  21591.070968   -551.385631
PG13  11644.244616  13440.630537 -20036.523003    685.588214
PG14 -12999.993539  22436.328491  -5104.224138    537.577104
PG15  20574.788332   5845.093767 -16364.341398    226.561417
PG16  -2858.865321 -20680.338632 -16495.429426   -131.046610
PG17 -15965.433920  13431.308419  16963.203790    562.545113
PG18  14975.446645  -4542.400628 -21464.596607   -660.194130
PG19  -5225.268323  14944.029117  21112.937665    561.542804
PG20   2138.779346  24824.707490  -9325.316646    368.831796
PG21 -21123.284190 -16411.262042   5003.971635     97.703125
PG22  -9205.497070  24881.227179   3639.737343    -78.605235
PG23  15562.689456 -16038.369868 -14136.759140    361.091252
PG24  21583.562006  13646.695805   7560.366951   -480.815706
PG25  16854.682700  -8495.729051  18231.314944    499.074212
PG26   2959.998473 -25633.451881  -5537.342633     29.670990
PG27  -9011.620282 -13602.956711 -21327.592269    -34.731353
PG28   1190.587765 -18656.252900  18852.146501   -475.722963
PG29  26283.981698  -3749.388564  -2092.947222   -564.555701
PG30  -8577.058611  13770.929171 -20845.515257   -284.030772
PG31  -7970.935764 -22600.227499  10793.676106   -221.938359
PG32  12386.365329 -15018.854346  18194.737398   -575.129712
PR01  15262.229863 -16268.154637  12373.079071    104.070364
PR02     40.527768 -12014.613227  22530.544067    -25.596190
PR03 -16003.673437  -1506.961883  19871.903116    111.181571
PR04 -22831.466045   9327.923490   6581.534506    263.504746
PR05 -17687.657073  15268.004642 -10263.801015    140.541697
PR07  16233.086268   1233.846528 -19579.224513     94.771240
PR08  22725.276259  -9691.146267  -6202.805869     -6.282286
PR09   3512.673836  24641.516475   5396.536162    219.942584
PR11  10806.078030  -3509.629767  22847.621310      7.144703
PR12   5786.665185 -21607.811309  12268.221293     47.105539
PR14  -9573.480536 -13602.315567 -19337.252512     27.195332
PR15 -10783.616215   5382.997481 -22464.373398     74.208492
PR16  -5695.243665  21514.766240 -12425.829736     30.715627
PR17 -22016.059603 -12832.155000    202.230160    138.930937
PR18 -19906.068128  -3803.308901  15541.366341    171.367760
PR19  -9622.373212   5969.857432  22863.356294   -298.087151
PR20  10483.778464  15903.398240  16963.889882   -121.810593
PR21  21677.925550  13451.873062    829.698748   -150.457118
PR22  19367.380083   3164.000802 -16259.923881     -7.008867
PR24 -11527.342736 -15739.756020 -16395.223428    -79.723172
PR26  22571.588099  -8844.566926  -7942.083309   -133.599217
EOF
